     2.100          NAVIGATION                              RINEX VERSION / TYPE
fic2rin                                 11/03/2014 00:16:34 PGM / RUN BY / DATE
                                                            END OF HEADER
 5 14 11  2  8  0  0.0 -.322712585330D-03  .432009983342D-11  .000000000000D+00
     .930000000000D+02  .564375000000D+02  .467912347570D-08  .132596231609D+01
     .311248004436D-05  .393585010897D-02  .111181288958D-04  .515371688080D+04
     .288000000000D+05  .372529029846D-08  .274413745259D+01  .167638063431D-07
     .947218821866D+00  .157718750000D+03  .379567000066D+00 -.815962559544D-08
     .282868925483D-09  .100000000000D+01  .181700000000D+04  .000000000000D+00
     .240000000000D+01  .000000000000D+00 -.107102096081D-07  .930000000000D+02
     .216360000000D+05  .400000000000D+01
25 14 11  2  7 59 44.0  .160378403962D-04 -.159161572810D-11  .000000000000D+00
     .140000000000D+02  .387187500000D+02  .409659921123D-08  .285970861137D+01
     .202469527721D-05  .376796990167D-02  .101570039988D-04  .515377407265D+04
     .287840000000D+05 -.782310962677D-07 -.393680649991D+00 -.707805156708D-07
     .977549762803D+00  .190812500000D+03  .710269237405D+00 -.779211028696D-08
     .307155651409D-09  .100000000000D+01  .181700000000D+04  .000000000000D+00
     .240000000000D+01  .000000000000D+00  .512227416039D-08  .140000000000D+02
     .232260000000D+05  .400000000000D+01
21 14 11  2  7 59 44.0 -.392654910684D-03 -.204636307899D-11  .000000000000D+00
     .200000000000D+01 -.831875000000D+02  .498735060031D-08  .300146460961D+01
    -.436604022980D-05  .217263045488D-01  .926293432713D-05  .515367342758D+04
     .287840000000D+05  .147148966789D-06  .169113357320D+01 -.227242708206D-06
     .932636720703D+00  .182000000000D+03 -.198300462506D+01 -.794997400547D-08
    -.314655963827D-09  .100000000000D+01  .181700000000D+04  .000000000000D+00
     .240000000000D+01  .000000000000D+00 -.116415321827D-07  .200000000000D+01
     .241560000000D+05  .400000000000D+01
21 14 11  2  9 59 44.0 -.392669811845D-03 -.204636307899D-11  .000000000000D+00
     .380000000000D+02 -.844375000000D+02  .495520640424D-08 -.223152616071D+01
    -.442937016487D-05  .217260088539D-01  .924244523048D-05  .515367406464D+04
     .359840000000D+05  .258907675743D-06  .169107580695D+01 -.130385160446D-06
     .932634810132D+00  .179062500000D+03 -.198301464313D+01 -.798068957061D-08
    -.240009997380D-09  .100000000000D+01  .181700000000D+04  .000000000000D+00
     .240000000000D+01  .000000000000D+00 -.116415321827D-07  .380000000000D+02
     .288060000000D+05  .400000000000D+01
25 14 11  2  9 59 44.0  .160261988640D-04 -.159161572810D-11  .000000000000D+00
     .150000000000D+02  .446875000000D+02  .411409994020D-08 -.237321282102D+01
     .231154263020D-05  .376698677428D-02  .105500221252D-04  .515377610970D+04
     .359840000000D+05  .108033418655D-06 -.393737683315D+00 -.108033418655D-06
     .977552088843D+00  .183906250000D+03  .710122006403D+00 -.787925677410D-08
     .413231498465D-09  .100000000000D+01  .181700000000D+04  .000000000000D+00
     .240000000000D+01  .000000000000D+00  .512227416039D-08  .150000000000D+02
     .288060000000D+05  .400000000000D+01
 1 14 11  2 10  0  0.0 -.125663354993D-04  .454747350886D-12  .000000000000D+00
     .150000000000D+02 -.614687500000D+02  .452304554586D-08 -.691647239689D+00
    -.332109630108D-05  .362430314999D-02  .973977148533D-05  .515367483521D+04
     .360000000000D+05  .819563865662D-07  .170799550053D+01  .596046447754D-07
     .961071583758D+00  .192750000000D+03  .447860278950D+00 -.809033699501D-08
    -.399302346831D-09  .100000000000D+01  .181700000000D+04  .000000000000D+00
     .240000000000D+01  .000000000000D+00  .558793544769D-08  .150000000000D+02
     .288060000000D+05  .400000000000D+01
 2 14 11  2 10  0  0.0  .527722295374D-03  .216004991671D-11  .000000000000D+00
     .640000000000D+02 -.682812500000D+02  .516307220554D-08  .392310185408D-01
    -.351481139660D-05  .138862332096D-01  .975653529167D-05  .515370652771D+04
     .360000000000D+05  .633299350739D-07  .167491347046D+01  .223517417908D-06
     .939632930386D+00  .182187500000D+03 -.237503976285D+01 -.862964517365D-08
    -.439304013061D-09  .100000000000D+01  .181700000000D+04  .000000000000D+00
     .240000000000D+01  .000000000000D+00 -.204890966415D-07  .640000000000D+02
     .288060000000D+05  .400000000000D+01
 4 14 11  2 10  0  0.0 -.240933150053D-05 -.568434188608D-12  .000000000000D+00
     .710000000000D+02 -.603125000000D+02  .510128391752D-08 -.108474032473D+01
    -.311993062496D-05  .112402454251D-01  .911578536034D-05  .515199817276D+04
     .360000000000D+05  .633299350739D-07  .169050760518D+01  .299885869026D-06
     .938654410815D+00  .191593750000D+03  .109295318340D+01 -.844785188694D-08
    -.400016662300D-09  .100000000000D+01  .181700000000D+04  .000000000000D+00
     .240000000000D+01  .000000000000D+00 -.651925802231D-08  .710000000000D+02
     .288060000000D+05  .400000000000D+01
 5 14 11  2 10  0  0.0 -.322681386024D-03  .432009983342D-11  .000000000000D+00
     .960000000000D+02  .649687500000D+02  .476769859378D-08  .237636400361D+01
     .332854688168D-05  .393638864625D-02  .112764537334D-04  .515371486664D+04
     .360000000000D+05  .745058059692D-08  .274407870619D+01  .130385160446D-07
     .947220842156D+00  .156000000000D+03  .379321604336D+00 -.815998275318D-08
     .280368821344D-09  .100000000000D+01  .181700000000D+04  .000000000000D+00
     .340000000000D+01  .000000000000D+00 -.107102096081D-07  .960000000000D+02
     .288060000000D+05  .400000000000D+01
 6 14 11  2 10  0  0.0  .542309135199D-05  .420641299570D-11  .000000000000D+00
     .680000000000D+02 -.664062500000D+02  .448554398377D-08  .234561077674D+01
    -.345520675182D-05  .599340302870D-03  .105760991573D-04  .515363551903D+04
     .360000000000D+05  .353902578354D-07  .169943927450D+01  .279396772385D-07
     .960982034153D+00  .175843750000D+03  .218137228335D+01 -.808176520939D-08
    -.411802867528D-09  .100000000000D+01  .181700000000D+04  .000000000000D+00
     .240000000000D+01  .000000000000D+00  .465661287308D-08  .680000000000D+02
     .288060000000D+05  .400000000000D+01
 7 14 11  2 10  0  0.0  .408560503274D-03  .386535248253D-11  .000000000000D+00
     .700000000000D+02 -.319375000000D+02  .425946313802D-08 -.120415057407D+01
    -.178441405296D-05  .800799659919D-02  .885501503944D-05  .515360794640D+04
     .360000000000D+05  .147148966789D-06 -.141476462096D+01 -.596046447754D-07
     .971954442010D+00  .211781250000D+03 -.275849628027D+01 -.796176021070D-08
    -.219294848796D-09  .100000000000D+01  .181700000000D+04  .000000000000D+00
     .240000000000D+01  .000000000000D+00 -.111758708954D-07  .700000000000D+02
     .288060000000D+05  .400000000000D+01
 8 14 11  2 10  0  0.0  .161826610565D-04  .227373675443D-12  .000000000000D+00
     .580000000000D+02 -.325312500000D+02  .376051378335D-08 -.651323523748D+00
    -.157393515110D-05  .147409321507D-01  .935420393944D-05  .515218511772D+04
     .360000000000D+05  .255182385445D-06 -.131178401250D+01  .171363353729D-06
     .995451169497D+00  .217000000000D+03 -.269265047065D+01 -.784604110482D-08
    -.236438420038D-09  .100000000000D+01  .181700000000D+04  .000000000000D+00
     .340000000000D+01  .630000000000D+02 -.465661287308D-08  .580000000000D+02
     .288060000000D+05  .400000000000D+01
 9 14 11  2 10  0  0.0  .126380473375D-05 -.636646291241D-11  .000000000000D+00
     .670000000000D+02  .230000000000D+02  .484020161383D-08  .140546182541D-01
     .124052166939D-05  .275599421002D-03  .442378222942D-05  .515371414948D+04
     .360000000000D+05 -.372529029846D-08 -.249003313336D+01 -.111758708954D-07
     .959309873438D+00  .292781250000D+03 -.289966723709D+01 -.844213736319D-08
     .421446126351D-10  .100000000000D+01  .181700000000D+04  .000000000000D+00
     .240000000000D+01  .000000000000D+00  .465661287308D-09  .670000000000D+02
     .288060000000D+05  .400000000000D+01
10 14 11  2 10  0  0.0 -.148129649460D-03 -.159161572810D-11  .000000000000D+00
     .230000000000D+02  .662187500000D+02  .474019744825D-08  .264420196371D+01
     .328570604324D-05  .142069589347D-01  .108294188976D-04  .515363571167D+04
     .360000000000D+05  .782310962677D-07  .276039799624D+01 -.156462192535D-06
     .942022017513D+00  .159062500000D+03  .896109923787D+00 -.801211945122D-08
     .328585115460D-09  .100000000000D+01  .181700000000D+04  .000000000000D+00
     .240000000000D+01  .000000000000D+00 -.325962901115D-08  .230000000000D+02
     .288060000000D+05  .400000000000D+01
11 14 11  2 10  0  0.0 -.533310230821D-03 -.284217094304D-11  .000000000000D+00
     .590000000000D+02 -.664062500000D+02  .643526805475D-08 -.110244372985D+01
    -.328756868839D-05  .156355533982D-01  .650808215141D-05  .515371331978D+04
     .360000000000D+05 -.156462192535D-06  .137220781616D+01  .376254320145D-06
     .891212183776D+00  .215718750000D+03  .135536330048D+01 -.923609900631D-08
    -.369301097159D-09  .100000000000D+01  .181700000000D+04  .000000000000D+00
     .240000000000D+01  .000000000000D+00 -.121071934700D-07  .590000000000D+02
     .288060000000D+05  .400000000000D+01
12 14 11  2 10  0  0.0  .243257731199D-03  .272848410532D-11  .000000000000D+00
     .108000000000D+03  .477812500000D+02  .395337895982D-08 -.159843326605D+01
     .247731804848D-05  .497619749513D-02  .102389603853D-04  .515379286385D+04
     .360000000000D+05  .102445483208D-06 -.349517780578D+00 -.614672899246D-07
     .988937364365D+00  .197718750000D+03  .504048213551D+00 -.779103881375D-08
     .490020411317D-09  .100000000000D+01  .181700000000D+04  .000000000000D+00
     .240000000000D+01  .000000000000D+00 -.121071934700D-07  .108000000000D+03
     .288060000000D+05  .400000000000D+01
